NORAD_CAT_ID,OBJECT_NAME,OBJECT_TYPE,EPOCH,MEAN_MOTION,ECCENTRICITY,INCLINATION,RA_OF_ASC_NODE,ARG_OF_PERICENTER,MEAN_ANOMALY,BSTAR,MEAN_MOTION_DOT,MEAN_MOTION_DDOT,TLE_LINE0,TLE_LINE1,TLE_LINE2,SEMIMAJOR_AXIS,PERIOD,APOGEE,PERIGEE,DECAYED
51782.0,STARLINK-3616,PAYLOAD,2023-04-20 04:37:50,15.08393737,7.62e-05,53.218,42.9519,96.3529,263.7549,0.0029971,0.00047149,0.0,0 STARLINK-3616,1 51782U 22017Q   23110.19294517  .00047149  00000-0  29971-2 0  9995,2 51782  53.2180  42.9519 0000762  96.3529 263.7549 15.08393737 64724,6919.245,95.466,541.637,540.583,0.0
51782.0,STARLINK-3616,PAYLOAD,2023-04-21 12:25:42,15.08761516,9.05e-05,53.2166,37.0087,68.8791,291.2297,0.0041075,0.0006555,0.0,0 STARLINK-3616,1 51782U 22017Q   23111.51785680  .00065550  00000-0  41075-2 0  9993,2 51782  53.2166  37.0087 0000905  68.8791 291.2297 15.08761516 64929,6918.12,95.443,540.611,539.359,0.0
51782.0,STARLINK-3616,PAYLOAD,2023-04-21 18:47:14,15.08794222,8.65e-05,53.217,35.8158,100.3591,259.7499,0.0028857,0.00045879,0.0,0 STARLINK-3616,1 51782U 22017Q   23111.78281038  .00045879  00000-0  28857-2 0  9995,2 51782  53.2170  35.8158 0000865 100.3591 259.7499 15.08794222 64961,6918.02,95.44,540.484,539.287,0.0
51782.0,STARLINK-3616,PAYLOAD,2023-04-22 01:08:45,15.08836157,8.1e-05,53.2168,34.6284,89.0625,271.046,0.0013987,0.0002204,0.0,0 STARLINK-3616,1 51782U 22017Q   23112.04775380  .00022040  00000-0  13987-2 0  9996,2 51782  53.2168  34.6284 0000810  89.0625 271.0460 15.08836157 65001,6917.892,95.438,540.317,539.197,0.0
51782.0,STARLINK-3616,PAYLOAD,2023-04-23 00:59:31,15.08844371,8.09e-05,53.2173,30.1665,102.375,257.7333,7.4448e-05,8.97e-06,0.0,0 STARLINK-3616,1 51782U 22017Q   23113.04134115  .00000897  00000-0  74448-4 0  9999,2 51782  53.2173  30.1665 0000809 102.3750 257.7333 15.08844371 65150,6917.867,95.437,540.292,539.172,0.0
51782.0,STARLINK-3616,PAYLOAD,2023-04-23 21:39:32,15.08842836,9.6e-05,53.2171,26.3006,113.3031,246.8063,0.00018518,2.661e-05,0.0,0 STARLINK-3616,1 51782U 22017Q   23113.90246354  .00002661  00000-0  18518-3 0  9999,2 51782  53.2171  26.3006 0000960 113.3031 246.8063 15.08842836 63551,6917.872,95.437,540.401,539.073,0.0
51782.0,STARLINK-3616,PAYLOAD,2023-04-24 04:01:04,15.08892372,0.0001105,53.2177,25.109,117.0268,243.0837,0.002333,0.00037091,0.0,0 STARLINK-3616,1 51782U 22017Q   23114.16741747  .00037091  00000-0  23330-2 0  9996,2 51782  53.2177  25.1090 0001105 117.0268 243.0837 15.08892372 63594,6917.72,95.434,540.35,538.821,0.0
51782.0,STARLINK-3616,PAYLOAD,2023-04-25 00:41:04,15.0888495,0.0001114,53.2181,21.2451,89.2077,270.9042,0.00080449,0.00012554,0.0,0 STARLINK-3616,1 51782U 22017Q   23115.02852050  .00012554  00000-0  80449-3 0  9994,2 51782  53.2181  21.2451 0001114  89.2077 270.9042 15.08884950 65452,6917.743,95.435,540.379,538.837,0.0
51782.0,STARLINK-3616,PAYLOAD,2023-04-26 05:18:02,15.0881648,0.0001272,53.2169,15.8943,114.2132,245.8993,-0.00037742,-6.286e-05,0.0,0 STARLINK-3616,1 51782U 22017Q   23116.22086189 -.00006286  00000-0 -37742-3 0  9994,2 51782  53.2169  15.8943 0001272 114.2132 245.8993 15.08816480 63906,6917.952,95.439,540.697,538.937,0.0
51782.0,STARLINK-3616,PAYLOAD,2023-04-26 18:01:08,15.08827083,0.0001119,53.2169,13.5148,103.3448,256.7669,-1.8454e-05,-5.81e-06,0.0,0 STARLINK-3616,1 51782U 22017Q   23116.75078719 -.00000581  00000-0 -18454-4 0  9994,2 51782  53.2169  13.5148 0001119 103.3448 256.7669 15.08827083 63987,6917.92,95.438,540.559,539.011,0.0
51782.0,STARLINK-3616,PAYLOAD,2023-04-27 21:02:41,15.08851003,0.0001108,53.2161,8.4589,106.3324,253.779,0.0007632,0.00011883,0.0,0 STARLINK-3616,1 51782U 22017Q   23117.87687225  .00011883  00000-0  76320-3 0  9996,2 51782  53.2161   8.4589 0001108 106.3324 253.7790 15.08851003 65887,6917.847,95.437,540.478,538.945,0.0
51782.0,STARLINK-3616,PAYLOAD,2023-04-28 11:21:10,15.08843213,0.0001201,53.2158,5.7825,106.7901,253.3223,0.00027654,4.116e-05,0.0,0 STARLINK-3616,1 51782U 22017Q   23118.47303340  .00004116  00000-0  27654-3 0  9993,2 51782  53.2158   5.7825 0001201 106.7901 253.3223 15.08843213 65976,6917.871,95.437,540.566,538.905,0.0
51782.0,STARLINK-3616,PAYLOAD,2023-04-28 20:53:29,15.08832136,0.0001028,53.2165,3.9984,109.7871,250.3232,2.1572e-05,5.6e-07,0.0,0 STARLINK-3616,1 51782U 22017Q   23118.87047798  .00000056  00000-0  21572-4 0  9992,2 51782  53.2165   3.9984 0001028 109.7871 250.3232 15.08832136 66033,6917.904,95.438,540.481,539.058,0.0
51782.0,STARLINK-3616,PAYLOAD,2023-04-29 00:04:15,15.08835316,0.0001126,53.2161,3.4037,92.8385,267.2736,0.00015411,2.165e-05,0.0,0 STARLINK-3616,1 51782U 22017Q   23119.00295891  .00002165  00000-0  15411-3 0  9994,2 51782  53.2161   3.4037 0001126  92.8385 267.2736 15.08835316 64323,6917.895,95.438,540.539,538.981,0.0
51782.0,STARLINK-3616,PAYLOAD,2023-04-29 19:08:53,15.08848178,0.000109,53.2163,359.8352,85.7705,274.3412,0.00056252,8.678e-05,0.0,0 STARLINK-3616,1 51782U 22017Q   23119.79783828  .00008678  00000-0  56252-3 0  9995,2 51782  53.2163 359.8352 0001090  85.7705 274.3412 15.08848178 66175,6917.855,95.437,540.474,538.966,0.0
51782.0,STARLINK-3616,PAYLOAD,2023-04-29 22:19:39,15.08854726,0.0001124,53.216,359.2405,87.1347,272.9774,0.0007369,0.00011464,0.0,0 STARLINK-3616,1 51782U 22017Q   23119.93031657  .00011464  00000-0  73690-3 0  9999,2 51782  53.2160 359.2405 0001124  87.1347 272.9774 15.08854726 64462,6917.835,95.437,540.478,538.923,0.0
51782.0,STARLINK-3616,PAYLOAD,2023-04-30 15:48:53,15.08851989,0.0001174,53.2162,355.9699,86.125,273.9877,0.00040982,6.243e-05,0.0,0 STARLINK-3616,1 51782U 22017Q   23120.65895619  .00006243  00000-0  40982-3 0  9993,2 51782  53.2162 355.9699 0001174  86.1250 273.9877 15.08851989 66307,6917.844,95.437,540.521,538.897,0.0
51782.0,STARLINK-3616,PAYLOAD,2023-04-30 22:10:26,15.088432,0.0001096,53.2167,354.7793,107.5189,252.5923,0.0002996,4.484e-05,0.0,0 STARLINK-3616,1 51782U 22017Q   23120.92391501  .00004484  00000-0  29960-3 0  9992,2 51782  53.2167 354.7793 0001096 107.5189 252.5923 15.08843200 66342,6917.871,95.437,540.494,538.977,0.0
51782.0,STARLINK-3616,PAYLOAD,2023-05-01 15:39:41,15.08836311,0.0001166,53.2164,351.5084,94.1839,265.9287,3.1095e-05,2.07e-06,0.0,0 STARLINK-3616,1 51782U 22017Q   23121.65255990  .00000207  00000-0  31095-4 0  9996,2 51782  53.2164 351.5084 0001166  94.1839 265.9287 15.08836311 66456,6917.892,95.438,540.563,538.95,0.0
51782.0,STARLINK-3616,PAYLOAD,2023-05-01 22:01:13,15.0884082,0.0001139,53.216,350.3201,94.6147,265.4976,1.449e-05,-5.7e-07,0.0,0 STARLINK-3616,1 51782U 22017Q   23121.91751901 -.00000057  00000-0  14490-4 0  9992,2 51782  53.2160 350.3201 0001139  94.6147 265.4976 15.08840820 64769,6917.878,95.438,540.531,538.955,0.0
51782.0,STARLINK-3616,PAYLOAD,2023-05-02 20:16:37,15.08841389,0.0001086,53.2169,346.1565,95.2857,264.8259,0.00013727,1.898e-05,0.0,0 STARLINK-3616,1 51782U 22017Q   23122.84487791  .00001898  00000-0  13727-3 0  9992,2 51782  53.2169 346.1565 0001086  95.2857 264.8259 15.08841389 66636,6917.876,95.437,540.492,538.99,0.0
51782.0,STARLINK-3616,PAYLOAD,2023-05-03 07:24:19,15.08845894,0.0001149,53.2165,344.074,101.0394,259.0727,0.00018759,2.699e-05,0.0,0 STARLINK-3616,1 51782U 22017Q   23123.30855489  .00002699  00000-0  18759-3 0  9997,2 51782  53.2165 344.0740 0001149 101.0394 259.0727 15.08845894 64972,6917.862,95.437,540.522,538.933,0.0
51782.0,STARLINK-3616,PAYLOAD,2023-05-03 20:07:25,15.08834833,0.0001158,53.217,341.6937,108.1638,251.948,4.7786e-05,4.73e-06,0.0,0 STARLINK-3616,1 51782U 22017Q   23123.83848536  .00000473  00000-0  47786-4 0  9991,2 51782  53.2170 341.6937 0001158 108.1638 251.9480 15.08834833 66787,6917.896,95.438,540.562,538.96,0.0
51782.0,STARLINK-3616,PAYLOAD,2023-05-04 08:50:30,15.08838249,0.0001032,53.2167,339.3171,103.8725,256.2382,6.3412e-05,7.22e-06,0.0,0 STARLINK-3616,1 51782U 22017Q   23124.36840419  .00000722  00000-0  63412-4 0  9993,2 51782  53.2167 339.3171 0001032 103.8725 256.2382 15.08838249 65139,6917.886,95.438,540.465,539.037,0.0
51782.0,STARLINK-3616,PAYLOAD,2023-05-04 21:33:34,15.08849188,9.27e-05,53.2158,336.9389,90.8081,269.3017,8.4861e-05,1.063e-05,0.0,0 STARLINK-3616,1 51782U 22017Q   23124.89831622  .00001063  00000-0  84861-4 0  9997,2 51782  53.2158 336.9389 0000927  90.8081 269.3017 15.08849188 66949,6917.852,95.437,540.359,539.076,0.0
51782.0,STARLINK-3616,PAYLOAD,2023-05-05 21:24:22,15.08842672,0.0001043,53.2152,332.4787,80.4302,279.6808,0.00020106,2.914e-05,0.0,0 STARLINK-3616,1 51782U 22017Q   23125.89192335  .00002914  00000-0  20106-3 0  9996,2 51782  53.2152 332.4787 0001043  80.4302 279.6808 15.08842672 65365,6917.872,95.437,540.459,539.016,0.0
51782.0,STARLINK-3616,PAYLOAD,2023-05-05 22:59:45,15.08846927,0.0001022,53.215,332.1809,90.5376,269.5733,0.00030749,4.61e-05,0.0,0 STARLINK-3616,1 51782U 22017Q   23125.95816143  .00004610  00000-0  30749-3 0  9992,2 51782  53.2150 332.1809 0001022  90.5376 269.5733 15.08846927 67101,6917.859,95.437,540.431,539.017,0.0
51782.0,STARLINK-3616,PAYLOAD,2023-05-06 19:39:46,15.08850155,0.0001286,53.2147,328.3148,73.6336,286.4797,0.00061906,9.581e-05,0.0,0 STARLINK-3616,1 51782U 22017Q   23126.81928395  .00009581  00000-0  61906-3 0  9992,2 51782  53.2147 328.3148 0001286  73.6336 286.4797 15.08850155 67230,6917.849,95.437,540.604,538.825,0.0
51782.0,STARLINK-3616,PAYLOAD,2023-05-07 19:30:33,15.08844519,9.58e-05,53.2163,323.8513,99.2593,260.8508,0.00024935,3.683e-05,0.0,0 STARLINK-3616,1 51782U 22017Q   23127.81288427  .00003683  00000-0  24935-3 0  9996,2 51782  53.2163 323.8513 0000958  99.2593 260.8508 15.08844519 67387,6917.867,95.437,540.394,539.069,0.0
51782.0,STARLINK-3616,PAYLOAD,2023-05-08 19:21:20,15.08845097,0.0001113,53.2151,319.3934,88.889,271.2229,7.9687e-05,9.81e-06,0.0,0 STARLINK-3616,1 51782U 22017Q   23128.80648425  .00000981  00000-0  79687-4 0  9997,2 51782  53.2151 319.3934 0001113  88.8890 271.2229 15.08845097 67534,6917.865,95.437,540.5,538.96,0.0
